CCSDS_OMM_VERS,COMMENT,CREATION_DATE,ORIGINATOR,OBJECT_NAME,OBJECT_ID,CENTER_NAME,REF_FRAME,TIME_SYSTEM,MEAN_ELEMENT_THEORY,EPOCH,MEAN_MOTION,ECCENTRICITY,INCLINATION,RA_OF_ASC_NODE,ARG_OF_PERICENTER,MEAN_ANOMALY,EPHEMERIS_TYPE,CLASSIFICATION_TYPE,NORAD_CAT_ID,ELEMENT_SET_NO,REV_AT_EPOCH,BSTAR,MEAN_MOTION_DOT,MEAN_MOTION_DDOT,SEMIMAJOR_AXIS,PERIOD,APOAPSIS,PERIAPSIS,OBJECT_TYPE,RCS_SIZE,COUNTRY_CODE,LAUNCH_DATE,SITE,DECAY_DATE,FILE,GP_ID,TLE_LINE0,TLE_LINE1,TLE_LINE2
"3.0","GENERATED VIA SPACE-TRACK.ORG API","2025-02-12T16:06:30","18 SPCS","STARLINK-1961","2021-009Q","EARTH","TEME","UTC","SGP4","2025-02-12T12:32:07.347264","16.41161504","0.00062190","53.0237","286.6929","204.8338","223.2737","0","U","47562","999","22323","0.00076125000000","0.12159569","0.0000123000000","6540.852","87.743","166.784","158.649","PAYLOAD","LARGE","US","2021-02-04","AFETR","2025-02-12","4638693","280537100","0 STARLINK-1961","1 47562U 21009Q   25043.52230726  .12159569  12300-4  76125-3 0  9999","2 47562  53.0237 286.6929 0006219 204.8338 223.2737 16.41161504223231"
"3.0","GENERATED VIA SPACE-TRACK.ORG API","2025-02-12T22:46:18","18 SPCS","FENGYUN 1C DEB","1999-025AJL","EARTH","TEME","UTC","SGP4","2025-02-12T12:41:57.970752","15.65600689","0.00248990","99.3505","140.7800","310.7614","49.1478","0","U","30522","999","95417","0.01321600000000","0.01498376","0.0000000000000","6749.649","91.977","388.320","354.708","DEBRIS","SMALL","PRC","1999-05-10","TSC","2025-02-25","4638953","280571591","0 FENGYUN 1C DEB","1 30522U 99025AJL 25043.52914318  .01498376  00000-0  13216-1 0  9996","2 30522  99.3505 140.7800 0024899 310.7614  49.1478 15.65600689954174"
"3.0","GENERATED VIA SPACE-TRACK.ORG API","2025-02-12T17:36:35","18 SPCS","STARLINK-1644","2020-070A","EARTH","TEME","UTC","SGP4","2025-02-12T13:33:10.664928","16.40208774","0.00037150","53.0251","82.5848","40.3163","98.2363","0","U","46532","999","24135","0.00099040000000","0.13939950","0.0000124160000","6543.384","87.794","167.680","162.818","PAYLOAD","LARGE","US","2020-10-06","AFETR","2025-02-12","4638711","280537119","0 STARLINK-1644","1 46532U 20070A   25043.56470677  .13939950  12416-4  99040-3 0  9997","2 46532  53.0251  82.5848 0003715  40.3163  98.2363 16.40208774241351"
"3.0","GENERATED VIA SPACE-TRACK.ORG API","2025-02-13T17:23:10","18 SPCS","OBJECT AV","2018-099AV","EARTH","TEME","UTC","SGP4","2025-02-12T15:23:21.408864","16.27654057","0.00093900","97.3348","119.0287","287.1501","72.8764","0","U","43801","999","34021","0.00190690000000","0.06767571","0.0000024241000","6576.989","88.471","205.030","192.678","UNKNOWN","SMALL","TBD","2018-12-03","AFWTR","2025-02-21","4639754","280637603","0 OBJECT AV","1 43801U 18099AV  25043.64122001  .06767571  24241-5  19069-2 0  9997","2 43801  97.3348 119.0287 0009390 287.1501  72.8764 16.27654057340212"
"3.0","GENERATED VIA SPACE-TRACK.ORG API","2025-02-13T05:22:15","18 SPCS","DELTA 1 DEB","1977-065GN","EARTH","TEME","UTC","SGP4","2025-02-12T17:56:18.645792","16.03420929","0.00321860","29.2848","203.6627","51.5843","308.7671","0","U","39101","999","55448","0.00342980000000","0.02288082","0.0040885000000","6643.090","89.808","286.337","243.574","DEBRIS","SMALL","US","1977-07-14","AFETR","2025-02-21","4639109","280589124","0 DELTA 1 DEB","1 39101U 77065GN  25043.74743803  .02288082  40885-2  34298-2 0  9994","2 39101  29.2848 203.6627 0032186  51.5843 308.7671 16.03420929554485"
"3.0","GENERATED VIA SPACE-TRACK.ORG API","2025-02-12T18:16:22","18 SPCS","STARLINK-2305","2021-024N","EARTH","TEME","UTC","SGP4","2025-02-12T17:59:08.930688","16.44472738","0.00034900","53.0388","159.7404","306.0647","172.5567","0","U","47989","999","21704","0.00056636000000","0.16386124","0.0000125210000","6532.068","87.566","156.213","151.654","PAYLOAD","LARGE","US","2021-03-24","AFETR","2025-02-13","4638716","280567078","0 STARLINK-2305","1 47989U 21024N   25043.74940892  .16386124  12521-4  56636-3 0  9998","2 47989  53.0388 159.7404 0003490 306.0647 172.5567 16.44472738217041"
"3.0","GENERATED VIA SPACE-TRACK.ORG API","2025-02-12T21:26:17","18 SPCS","STARLINK-1186","2020-006BH","EARTH","TEME","UTC","SGP4","2025-02-12T18:53:25.209312","16.44022240","0.00034600","53.0203","154.5510","296.6714","205.3999","0","U","45099","999","27919","0.00044533000000","0.11584837","0.0000125000000","6533.262","87.590","157.387","152.866","PAYLOAD","LARGE","US","2020-01-29","AFETR","2025-02-13","4638734","280567131","0 STARLINK-1186","1 45099U 20006BH  25043.78709733  .11584837  12500-4  44533-3 0  9994","2 45099  53.0203 154.5510 0003460 296.6714 205.3999 16.44022240279191"
"3.0","GENERATED VIA SPACE-TRACK.ORG API","2025-02-12T22:56:17","18 SPCS","STARLINK-2042","2021-012AQ","EARTH","TEME","UTC","SGP4","2025-02-12T22:13:58.160640","16.46695280","0.00044780","53.0172","343.3577","291.6557","186.7188","0","U","47658","999","22111","0.00044619000000","0.21326616","0.0000125770000","6526.190","87.448","150.977","145.132","PAYLOAD","LARGE","US","2021-02-16","AFETR","2025-02-13","4639040","280573307","0 STARLINK-2042","1 47658U 21012AQ  25043.92636760  .21326616  12577-4  44619-3 0  9999","2 47658  53.0172 343.3577 0004478 291.6557 186.7188 16.46695280221113"
"3.0","GENERATED VIA SPACE-TRACK.ORG API","2025-02-13T05:26:15","18 SPCS","STARLINK-1725","2020-062K","EARTH","TEME","UTC","SGP4","2025-02-13T03:02:01.932000","16.41809555","0.00034120","53.0265","267.2117","231.6288","270.1331","0","U","46334","999","24647","0.00077411000000","0.13324878","0.0000123770000","6539.130","87.708","163.226","158.764","PAYLOAD","LARGE","US","2020-09-03","AFETR","2025-02-13","4639110","280604698","0 STARLINK-1725","1 46334U 20062K   25044.12641125  .13324878  12377-4  77411-3 0  9990","2 46334  53.0265 267.2117 0003412 231.6288 270.1331 16.41809555246473"
"3.0","GENERATED VIA SPACE-TRACK.ORG API","2025-02-13T17:23:10","18 SPCS","SL-16 DEB","1992-093HQ","EARTH","TEME","UTC","SGP4","2025-02-13T04:37:10.720416","15.76590836","0.00145370","71.3555","338.7491","173.5218","186.6182","0","U","22554","999","66447","0.01707400000000","0.03229229","0.0000000000000","6718.245","91.336","349.876","330.344","DEBRIS","SMALL","CIS","1992-12-25","TTMTR","2025-02-21","4639754","280626333","0 SL-16 DEB","1 22554U 92093HQ  25044.19248519  .03229229  00000-0  17074-1 0  9994","2 22554  71.3555 338.7491 0014537 173.5218 186.6182 15.76590836664477"
"3.0","GENERATED VIA SPACE-TRACK.ORG API","2025-02-13T09:06:15","18 SPCS","STARLINK-2066","2021-012BF","EARTH","TEME","UTC","SGP4","2025-02-13T05:55:16.651200","16.42151807","0.00048490","53.0387","316.9794","224.6657","276.6808","0","U","47673","999","22151","0.00070207000000","0.12681672","0.0000123630000","6538.222","87.690","163.257","156.916","PAYLOAD","LARGE","US","2021-02-16","AFETR","2025-02-13","4639440","280612859","0 STARLINK-2066","1 47673U 21012BF  25044.24672050  .12681672  12363-4  70207-3 0  9995","2 47673  53.0387 316.9794 0004849 224.6657 276.6808 16.42151807221514"
"3.0","GENERATED VIA SPACE-TRACK.ORG API","2025-02-13T17:23:10","18 SPCS","SKYKRAFT-3C","2023-084BM","EARTH","TEME","UTC","SGP4","2025-02-13T07:33:12.373920","16.37194898","0.00105190","97.5205","181.8573","287.4739","72.5409","0","U","56228","999","9358","0.00106120000000","0.09686312","0.0000025857000","6551.412","87.955","180.169","166.386","PAYLOAD","MEDIUM","AUS","2023-06-12","AFWTR","2025-02-21","4639754","280644594","0 SKYKRAFT-3C","1 56228U 23084BM  25044.31472655  .09686312  25857-5  10612-2 0  9997","2 56228  97.5205 181.8573 0010519 287.4739  72.5409 16.37194898 93580"
"3.0","GENERATED VIA SPACE-TRACK.ORG API","2025-02-13T09:46:16","18 SPCS","IRIDIUM 921","1997-034E","EARTH","TEME","UTC","SGP4","2025-02-13T07:51:01.276704","16.45169503","0.00100200","86.3458","164.7810","285.8836","162.1147","0","U","24873","999","51304","0.00037775000000","0.14657790","-0.0000015441000","6530.224","87.529","158.632","145.546","PAYLOAD","LARGE","US","1997-07-09","AFWTR","2025-02-13","4639441","280612860","0 IRIDIUM 921","1 24873U 97034E   25044.32709811  .14657790 -15441-5  37775-3 0  9995","2 24873  86.3458 164.7810 0010020 285.8836 162.1147 16.45169503513045"
"3.0","GENERATED VIA SPACE-TRACK.ORG API","2025-02-13T17:23:10","18 SPCS","CZ-4 DEB","1999-057SB","EARTH","TEME","UTC","SGP4","2025-02-13T10:51:11.412288","15.43541598","0.00235410","98.2521","118.7976","286.1106","73.7547","0","U","35323","999","61910","0.01057900000000","0.00510421","0.0000000000000","6813.804","93.292","451.709","419.628","DEBRIS","SMALL","PRC","1999-10-14","TSC","2025-03-14","4639754","280632086","0 CZ-4 DEB","1 35323U 99057SB  25044.45221542  .00510421  00000-0  10579-1 0  9992","2 35323  98.2521 118.7976 0023541 286.1106  73.7547 15.43541598619108"
"3.0","GENERATED VIA SPACE-TRACK.ORG API","2025-02-14T17:53:59","18 SPCS","CZ-6A DEB","2024-140SU","EARTH","TEME","UTC","SGP4","2025-02-14T02:32:32.337312","15.94397207","0.00219030","89.1835","332.5258","107.3623","253.0060","0","U","61283","999","2556","0.03045400000000","0.07974514","0.1428500000000","6668.132","90.316","304.602","275.391","DEBRIS","SMALL","PRC","2024-08-06","TSC","2025-02-21","4640722","280730895","0 CZ-6A DEB","1 61283U 24140SU  25045.10592983  .07974514  14285+0  30454-1 0  9997","2 61283  89.1835 332.5258 0021903 107.3623 253.0060 15.94397207 25562"
"3.0","GENERATED VIA SPACE-TRACK.ORG API","2025-02-14T17:53:59","18 SPCS","FENGYUN 1C DEB","1999-025TV","EARTH","TEME","UTC","SGP4","2025-02-14T04:30:56.896992","15.30241056","0.00465750","99.5639","308.9512","170.1509","190.0648","0","U","30164","999","89674","0.06198400000000","0.02063034","0.0000000000000","6853.229","94.103","507.013","443.176","DEBRIS","SMALL","PRC","1999-05-10","TSC","2025-02-25","4640722","280711421","0 FENGYUN 1C DEB","1 30164U 99025TV  25045.18815853  .02063034  00000-0  61984-1 0  9991","2 30164  99.5639 308.9512 0046575 170.1509 190.0648 15.30241056896744"
